     3.04           N: GNSS NAV DATA    M: Mixed            RINEX VERSION / TYPE
RTKCONV-EX 2.5.0                        20250916 020447 UTC PGM / RUN BY / DATE 
format: u-blox UBX                                          COMMENT             
log: D:\Software\Dropbox\Dropbox\experiment\COM6___9600_2509COMMENT             
  16_020025_blockz.ubx                                      COMMENT             
                                                            END OF HEADER       
J03 2025 09 16 03 00 00 -.132480636239D-05 -.341060513165D-12  .000000000000D+00
      .201000000000D+03  .445531250000D+03 -.683242745517D-09 -.134053248423D+01
      .149775296450D-04  .746110194596D-01 -.980496406555D-05  .649336697006D+04
      .183600000000D+06  .475719571114D-05 -.107320903535D+00  .854954123497D-06
      .703259266051D+00  .497593750000D+03 -.157908032425D+01  .539308178636D-09
     -.213580325049D-09  .200000000000D+01  .238400000000D+04  .100000000000D+01
      .280000000000D+01  .100000000000D+01  .931322574615D-09  .969000000000D+03
      .180066000000D+06  .000000000000D+00
S28 2025 09 16 02 00 32  .000000000000D+00  .000000000000D+00  .180078000000D+06
      .515204496000D+04  .165437500000D-02 -.625000000000D-07  .100000000000D+01
      .418613823200D+05 -.600000000000D-03 -.375000000000D-07  .819200000000D+04
     -.204264000000D+02 -.400000000000D-03  .125000000000D-06  .000000000000D+00
R19 2025 09 16 02 15 00 -.184616073966D-04 -.545696821064D-11  .180060000000D+06
     -.772585058594D+04 -.235234260559D+00  .000000000000D+00  .000000000000D+00
      .234548813477D+05  .838527679443D+00  .279396772385D-08  .300000000000D+01
      .626050000000D+04 -.343598270416D+01  .186264514923D-08  .000000000000D+00
R05 2025 09 16 02 15 00  .156080350280D-03  .909494701773D-12  .180060000000D+06
      .479912402344D+04 -.117199516296D+01  .000000000000D+00  .000000000000D+00
      .191809584961D+05 -.187983703613D+01  .372529029846D-08  .100000000000D+01
      .161364414063D+05  .258095455170D+01  .931322574615D-09  .000000000000D+00
E04 2025 09 16 01 10 00 -.341302715242D-03 -.103881347968D-10  .000000000000D+00
      .410000000000D+02 -.154593750000D+03  .279154485048D-08 -.259488583370D+00
     -.710412859917D-05  .157605856657D-03  .985153019428D-05  .544061804199D+04
      .177000000000D+06 -.223517417908D-07  .201660283261D+01  .558793544769D-07
      .965485895174D+00  .130781250000D+03  .428447081009D+00 -.537022369137D-08
      .271439877989D-09  .513000000000D+03  .238400000000D+04  .000000000000D+00
      .312000000000D+01  .000000000000D+00 -.512227416039D-08 -.535510480404D-08
      .180085000000D+06  .000000000000D+00
E06 2025 09 16 00 00 00 -.168616243172D-03 -.480326889374D-11  .000000000000D+00
      .340000000000D+02 -.163156250000D+03  .290654964089D-08 -.237638936769D+01
     -.735372304916D-05  .581872882321D-03  .928901135921D-05  .544062005806D+04
      .172800000000D+06 -.130385160446D-07  .201777083518D+01  .242143869400D-07
      .958747957826D+00  .136906250000D+03  .163040138933D+01 -.544451250009D-08
      .278583032673D-09  .513000000000D+03  .238400000000D+04  .000000000000D+00
      .312000000000D+01  .000000000000D+00  .162981450558D-08  .302679836750D-08
      .180085000000D+06  .000000000000D+00
C43 2025 09 16 02 00 00  .120334210806D-03  .962785406955D-12  .000000000000D+00
      .100000000000D+01  .113421875000D+03  .389873382648D-08  .201665468574D+01
      .534392893314D-05  .380926649086D-03  .774394720793D-05  .528266949844D+04
      .180000000000D+06 -.144354999065D-07 -.763797174395D+00 -.125728547573D-07
      .945197326554D+00  .196390625000D+03  .886076043710D+00 -.684742808001D-08
     -.306084178206D-09  .000000000000D+00  .102800000000D+04  .000000000000D+00
      .200000000000D+01  .000000000000D+00 -.170000000000D-08 -.170000000000D-08
      .180060000000D+06  .100000000000D+01
C11 2025 09 16 02 00 00 -.153713510372D-03  .158806301442D-10  .000000000000D+00
      .100000000000D+01  .118109375000D+03  .334549649621D-08 -.137387987301D+01
      .565871596336D-05  .217483297456D-02  .714091584086D-05  .528265487480D+04
      .180000000000D+06 -.349245965481D-07 -.682210421831D+00  .791624188423D-08
      .977249466683D+00  .224078125000D+03 -.163510146863D+01 -.664027659417D-08
     -.254653464482D-09  .000000000000D+00  .102800000000D+04  .000000000000D+00
      .200000000000D+01  .000000000000D+00  .380000000000D-08  .140000000000D-08
      .180060000000D+06  .000000000000D+00
S29 2025 09 16 02 01 36  .123865902424D-06  .109139364213D-10  .180105000000D+06
     -.253762147200D+05  .000000000000D+00  .000000000000D+00  .100000000000D+01
      .336753743200D+05  .000000000000D+00  .000000000000D+00  .819200000000D+04
      .000000000000D+00  .000000000000D+00  .000000000000D+00  .000000000000D+00
G24 2025 09 16 04 00 00 -.300535466522D-03  .113686837722D-10  .000000000000D+00
      .880000000000D+02 -.106250000000D+02  .523557522558D-08 -.253821114383D+00
     -.476837158203D-06  .173743830528D-01  .909343361855D-05  .515366023636D+04
      .187200000000D+06 -.670552253723D-07  .282190327964D+01  .275671482086D-06
      .934905491595D+00  .196812500000D+03  .109328569443D+01 -.852285501112D-08
      .478234206089D-09  .100000000000D+01  .238400000000D+04  .000000000000D+00
      .200000000000D+01  .000000000000D+00  .232830643654D-08  .880000000000D+02
      .180096000000D+06  .400000000000D+01
G29 2025 09 16 04 00 00 -.454396940768D-03  .534328137292D-11  .000000000000D+00
      .108000000000D+03  .587812500000D+02  .445411410316D-08  .149347258481D+01
      .311434268951D-05  .333737768233D-02  .849366188049D-05  .515359541321D+04
      .187200000000D+06  .614672899246D-07 -.118642594201D+01 -.689178705215D-07
      .964078472892D+00  .214406250000D+03  .278459316617D+01 -.791568686299D-08
     -.431446542909D-09  .100000000000D+01  .238400000000D+04  .000000000000D+00
      .200000000000D+01  .000000000000D+00 -.977888703346D-08  .108000000000D+03
      .180096000000D+06  .400000000000D+01
J07 2025 09 16 03 00 00  .139698386192D-08  .000000000000D+00  .000000000000D+00
      .201000000000D+03  .180906250000D+03  .000000000000D+00 -.521333673217D+00
      .608898699284D-05  .216340064071D-03 -.117681920528D-04  .649342445183D+04
      .183600000000D+06  .386498868465D-05 -.282145551407D+01 -.754371285439D-06
      .125877517590D-02  .361500000000D+03  .992311274776D-01  .104111479518D-08
      .000000000000D+00  .200000000000D+01  .238400000000D+04  .100000000000D+01
      .280000000000D+01  .100000000000D+01 -.558793544769D-08  .969000000000D+03
      .180096000000D+06  .000000000000D+00
E14 2025 09 16 01 50 00  .125749345170D-02  .489720264341D-09  .000000000000D+00
      .450000000000D+02  .654687500000D+02  .591881797110D-08  .437590678883D+00
      .436604022980D-05  .163933516480D+00  .371038913727D-05  .528933667374D+04
      .179400000000D+06  .124238431454D-05 -.121160299915D+01  .206008553505D-05
      .858186751083D+00  .216000000000D+03  .296172405377D+01 -.776103756408D-08
     -.211580241738D-08  .513000000000D+03  .238400000000D+04  .000000000000D+00
      .312000000000D+01  .130000000000D+03 -.302679836750D-08 -.395812094212D-08
      .180115000000D+06  .000000000000D+00
E09 2025 09 16 00 50 00 -.105136953061D-02 -.154471990754D-10  .000000000000D+00
      .390000000000D+02 -.163406250000D+03  .269225500037D-08 -.139610900977D+01
     -.736303627491D-05  .415205722675D-03  .932812690735D-05  .544062433052D+04
      .175800000000D+06 -.111758708954D-07  .201846462847D+01  .186264514923D-07
      .971271421650D+00  .141562500000D+03  .648307920010D+00 -.535486590880D-08
      .260725145963D-09  .513000000000D+03  .238400000000D+04  .000000000000D+00
      .312000000000D+01  .000000000000D+00 -.465661287308D-09 -.232830643654D-09
      .180124000000D+06  .000000000000D+00
G15 2025 09 16 04 00 00  .338623765856D-03  .375166564481D-11  .000000000000D+00
      .200000000000D+02 -.973437500000D+02  .491234747613D-08  .602421706768D+00
     -.512413680553D-05  .167055452475D-01  .745430588722D-05  .515363398361D+04
      .187200000000D+06 -.210478901863D-06  .171441542874D+01 -.169500708580D-06
      .940298347452D+00  .231656250000D+03  .146207219078D+01 -.851785480284D-08
     -.100718481043D-09  .100000000000D+01  .238400000000D+04  .000000000000D+00
      .200000000000D+01  .000000000000D+00 -.107102096081D-07  .200000000000D+02
      .180126000000D+06  .400000000000D+01
G18 2025 09 16 04 00 00 -.552029348910D-03  .875388650456D-11  .000000000000D+00
      .121000000000D+03  .828750000000D+02  .416374486526D-08 -.447911109501D+00
      .412762165070D-05  .562232849188D-02  .513531267643D-05  .515367962265D+04
      .187200000000D+06  .108033418655D-06 -.194015706676D+00 -.558793544769D-08
      .973282446858D+00  .288250000000D+03 -.290491521724D+01 -.808819404860D-08
     -.564309220030D-10  .100000000000D+01  .238400000000D+04  .000000000000D+00
      .200000000000D+01  .000000000000D+00 -.838190317154D-08  .121000000000D+03
      .180126000000D+06  .400000000000D+01
E33 2025 09 16 01 50 00  .838580308482D-05 -.810018718767D-12  .000000000000D+00
      .450000000000D+02  .975000000000D+02  .259439378120D-08 -.428361100925D+00
      .463984906673D-05  .324968132190D-03  .336579978466D-05  .544060354424D+04
      .179400000000D+06  .726431608200D-07 -.691410135779D-01  .242143869400D-07
      .999534206040D+00  .284250000000D+03 -.249412241656D+01 -.549701468701D-08
      .285726187357D-11  .513000000000D+03  .238400000000D+04  .000000000000D+00
      .312000000000D+01  .000000000000D+00 -.582076609135D-08 -.605359673500D-08
      .180145000000D+06  .000000000000D+00
